      2.10          N: GNSS NAV DATA                        RINEX VERSION / TYPE
fic2rin                                 11/27/2020 00:17:20 PGM / RUN BY / DATE
                                                            END OF HEADER
31 20 11 26 22  0  0.0-8.393125608563e-05-2.387423592154e-12 0.000000000000e+00
    1.010000000000e+02 7.240625000000e+01 4.464114519717e-09 1.907431010009e+00
    3.997236490250e-06 9.897256968543e-03 1.156143844128e-05 5.153709119797e+03
    4.248000000000e+05-7.823109626770e-08 2.976092304110e+00 2.067536115646e-07
    9.571322716010e-01 1.555312500000e+02 2.044268762514e-01-7.971403469522e-09
    2.142946405177e-12 1.000000000000e+00 2.133000000000e+03 0.000000000000e+00
    3.400000000000e+00 0.000000000000e+00-1.303851604462e-08 1.010000000000e+02
    4.176000000000e+05 4.000000000000e+00
27 20 11 26 22  0  0.0-2.226512879133e-05-8.185452315956e-12 0.000000000000e+00
    6.300000000000e+01-9.118750000000e+01 4.150530029093e-09-1.128954984364e+00
   -4.740431904793e-06 8.575915941037e-03 6.016343832016e-06 5.153674407959e+03
    4.248000000000e+05 2.626329660416e-07-1.239015437532e+00-4.656612873077e-08
    9.769982895003e-01 2.726562500000e+02 5.656049755804e-01-8.013905239892e-09
   -4.343038047824e-10 1.000000000000e+00 2.133000000000e+03 0.000000000000e+00
    2.400000000000e+00 0.000000000000e+00 1.862645149231e-09 6.300000000000e+01
    4.176000000000e+05 4.000000000000e+00
19 20 11 26 22  0  0.0-7.307203486562e-05 5.002220859751e-12 0.000000000000e+00
    1.230000000000e+02-8.559375000000e+01 4.025167664390e-09 1.336934955084e+00
   -4.796311259270e-06 9.002577629872e-03 6.698071956635e-06 5.153606187820e+03
    4.248000000000e+05 4.656612873077e-08-1.134044969365e+00-1.974403858185e-07
    9.814484292437e-01 2.647500000000e+02 1.752065831592e+00-7.938544957976e-09
   -4.021596087048e-10 1.000000000000e+00 2.133000000000e+03 0.000000000000e+00
    2.400000000000e+00 0.000000000000e+00-1.536682248116e-08 1.230000000000e+02
    4.176000000000e+05 4.000000000000e+00
22 20 11 26 22  0  0.0-7.242267020047e-04 5.570655048359e-12 0.000000000000e+00
    1.340000000000e+02 3.046875000000e+01 5.337365179826e-09-2.145081820845e+00
    1.769512891769e-06 6.743290461600e-03 5.325302481651e-06 5.153665342331e+03
    4.248000000000e+05-1.490116119385e-08 7.628688109709e-01 1.620501279831e-07
    9.326299722618e-01 2.602187500000e+02-1.070038501273e+00-8.448209044674e-09
    4.196603376804e-10 1.000000000000e+00 2.133000000000e+03 0.000000000000e+00
    2.400000000000e+00 0.000000000000e+00-1.816079020500e-08 1.340000000000e+02
    4.176000000000e+05 4.000000000000e+00
32 20 11 26 22  0  0.0 3.726687282324e-06 2.955857780762e-12 0.000000000000e+00
    9.400000000000e+01-4.596875000000e+01 4.855559396396e-09-4.009399259915e-01
   -2.311542630196e-06 4.268527613021e-03 8.208677172661e-06 5.153605327606e+03
    4.248000000000e+05 2.980232238770e-08 1.895905983386e+00 4.842877388000e-08
    9.566427514162e-01 2.198125000000e+02-2.467626072108e+00-8.192841264724e-09
   -4.160887603384e-10 1.000000000000e+00 2.133000000000e+03 0.000000000000e+00
    2.400000000000e+00 0.000000000000e+00 4.656612873077e-10 9.400000000000e+01
    4.176000000000e+05 4.000000000000e+00
25 20 11 26 22  0  0.0 2.914108335972e-05 6.821210263297e-12 0.000000000000e+00
    8.700000000000e+01 5.984375000000e+01 4.849487714914e-09 1.323590314381e+00
    3.086403012276e-06 9.371883352287e-03 3.302469849586e-06 5.153702987671e+03
    4.248000000000e+05-1.881271600723e-07-2.286358112153e+00 8.009374141693e-08
    9.633183860089e-01 3.180625000000e+02 9.286948016262e-01-8.539998582363e-09
    6.143113028173e-11 1.000000000000e+00 2.133000000000e+03 0.000000000000e+00
    3.400000000000e+00 0.000000000000e+00 5.587935447693e-09 8.700000000000e+01
    4.176000000000e+05 4.000000000000e+00
17 20 11 26 22  0  0.0 3.592488355935e-04 5.115907697473e-12 0.000000000000e+00
    6.900000000000e+01-7.562500000000e+01 4.089813214279e-09-1.267128697065e+00
   -3.794208168983e-06 1.361984293908e-02 6.532296538353e-06 5.153503953934e+03
    4.248000000000e+05-1.378357410431e-07-1.179425350886e+00 3.166496753693e-07
    9.830618537978e-01 2.680625000000e+02-1.610741762843e+00-8.052835432919e-09
   -3.928735076157e-10 1.000000000000e+00 2.133000000000e+03 0.000000000000e+00
    2.400000000000e+00 0.000000000000e+00-1.117587089539e-08 6.900000000000e+01
    4.176000000000e+05 4.000000000000e+00
28 20 11 26 22  0  0.0 6.505949422717e-04-4.661160346586e-12 0.000000000000e+00
    1.720000000000e+02 3.825000000000e+01 4.616978029953e-09-3.940536282696e-01
    2.032145857811e-06 1.834771363065e-02 3.350898623466e-06 5.153665569305e+03
    4.248000000000e+05-1.993030309677e-07-2.192670191938e+00-2.235174179077e-08
    9.751325847234e-01 3.256562500000e+02-1.372529008600e+00-8.632859593254e-09
    1.182192100189e-10 1.000000000000e+00 2.133000000000e+03 0.000000000000e+00
    3.400000000000e+00 0.000000000000e+00-1.117587089539e-08 1.720000000000e+02
    4.176000000000e+05 4.000000000000e+00
23 20 11 26 22  0  0.0 1.046694815159e-04 3.865352482535e-12 0.000000000000e+00
    2.000000000000e+00 1.768750000000e+01 4.794842581582e-09 2.913330937299e+00
    8.698552846909e-07 1.099362736568e-03 5.312263965607e-06 5.153625566483e+03
    4.248000000000e+05-5.587935447693e-09 8.304217040886e-01 1.117587089539e-08
    9.621468402493e-01 2.751250000000e+02 2.161438415306e+00-8.210341993700e-09
    3.557291032593e-10 1.000000000000e+00 2.133000000000e+03 0.000000000000e+00
    2.400000000000e+00 0.000000000000e+00-8.381903171539e-09 7.700000000000e+02
    4.176000000000e+05 4.000000000000e+00
18 20 11 26 22  0  0.0 3.261417150497e-04 4.433786671143e-12 0.000000000000e+00
    2.230000000000e+02-9.875000000000e+00 4.132314984649e-09-3.090865332822e+00
   -4.991888999939e-07 1.176077523269e-03 1.130625605583e-05 5.153707370758e+03
    4.248000000000e+05 1.303851604462e-08-1.683244952766e-01 2.235174179077e-08
    9.663612980384e-01 1.636250000000e+02 2.940555412656e+00-7.783895659069e-09
    3.325138505366e-10 1.000000000000e+00 2.133000000000e+03 0.000000000000e+00
    2.400000000000e+00 0.000000000000e+00-8.381903171539e-09 4.790000000000e+02
    4.176000000000e+05 4.000000000000e+00
14 20 11 26 22  0  0.0 4.467740654945e-05 1.443822839065e-11 0.000000000000e+00
    1.250000000000e+02 5.012500000000e+01 4.892703800752e-09 3.030722890733e+00
    2.652406692505e-06 1.499528298154e-04 2.870336174965e-06 5.153737102509e+03
    4.248000000000e+05 1.098960638046e-07-2.239425381445e+00-1.862645149231e-09
    9.594962243319e-01 3.230312500000e+02 1.671165962953e+00-8.493210919183e-09
    6.357407668690e-11 1.000000000000e+00 2.133000000000e+03 0.000000000000e+00
    2.400000000000e+00 6.300000000000e+01-2.328306436539e-09 1.250000000000e+02
    4.176000000000e+05 4.000000000000e+00
31 20 11 26 21 59 44.0-8.393311873078e-05-2.387423592154e-12 0.000000000000e+00
    4.000000000000e+00 7.240625000000e+01 4.464114519717e-09 1.905097469882e+00
    3.997236490250e-06 9.897254058160e-03 1.156143844128e-05 5.153709123611e+03
    4.247840000000e+05-7.823109626770e-08 2.976092428458e+00 2.067536115646e-07
    9.571322613605e-01 1.555312500000e+02 2.044267124045e-01-7.971403469522e-09
    2.142946405177e-12 1.000000000000e+00 2.133000000000e+03 0.000000000000e+00
    2.400000000000e+00 0.000000000000e+00-1.303851604462e-08 4.000000000000e+00
    4.182000000000e+05 4.000000000000e+00
25 20 11 26 21 59 44.0 2.914015203714e-05 6.821210263297e-12 0.000000000000e+00
    2.800000000000e+01 5.984375000000e+01 4.849487714914e-09 1.321255854078e+00
    3.086403012276e-06 9.371883119456e-03 3.302469849586e-06 5.153702991486e+03
    4.247840000000e+05-1.881271600723e-07-2.286357976101e+00 8.009374141693e-08
    9.633183889347e-01 3.180625000000e+02 9.286954891977e-01-8.539998582363e-09
    6.143113028173e-11 1.000000000000e+00 2.133000000000e+03 0.000000000000e+00
    2.400000000000e+00 0.000000000000e+00 5.587935447693e-09 2.800000000000e+01
    4.192500000000e+05 4.000000000000e+00
31 20 11 26 23 59 44.0-8.395034819841e-05-2.387423592154e-12 0.000000000000e+00
    4.000000000000e+01 8.093750000000e+01 4.430541692702e-09 2.955343542424e+00
    4.185363650322e-06 9.897725889459e-03 1.147203147411e-05 5.153707427979e+03
    4.319840000000e+05-1.247972249985e-07 2.976035063052e+00-4.284083843231e-08
    9.571335340993e-01 1.562187500000e+02 2.043408069291e-01-7.769966507436e-09
    1.096474243982e-10 1.000000000000e+00 2.133000000000e+03 0.000000000000e+00
    2.400000000000e+00 0.000000000000e+00-1.303851604462e-08 4.000000000000e+01
    4.248000000000e+05 4.000000000000e+00
25 20 11 26 23 59 44.0 2.918904647231e-05 6.821210263297e-12 0.000000000000e+00
    3.400000000000e+01 6.000000000000e+01 4.715553564591e-09 2.371414760109e+00
    2.944841980934e-06 9.371832595207e-03 3.151595592499e-06 5.153703117371e+03
    4.319840000000e+05-3.911554813385e-08-2.286419095356e+00-2.142041921616e-07
    9.633205584422e-01 3.188125000000e+02 9.287019318889e-01-8.231414300017e-09
    1.600066649198e-10 1.000000000000e+00 2.133000000000e+03 0.000000000000e+00
    2.400000000000e+00 0.000000000000e+00 5.587935447693e-09 3.400000000000e+01
    4.248000000000e+05 4.000000000000e+00
 1 20 11 27  0  0  0.0 8.031558245420e-04-4.433786671143e-12 0.000000000000e+00
    4.000000000000e+01-2.253125000000e+01 3.645866150674e-09-2.270055552034e+00
   -1.106411218643e-06 1.014429889619e-02 1.136958599091e-05 5.153698747635e+03
    4.320000000000e+05 8.009374141693e-08-1.828358833684e-01-8.009374141693e-08
    9.827177681510e-01 1.708437500000e+02 8.255271254441e-01-7.415308877379e-09
    3.360854278785e-10 1.000000000000e+00 2.133000000000e+03 0.000000000000e+00
    2.400000000000e+00 0.000000000000e+00 5.122274160385e-09 4.000000000000e+01
    4.248000000000e+05 4.000000000000e+00
